OBJECT_NAME,OBJECT_ID,EPOCH,MEAN_MOTION,ECCENTRICITY,INCLINATION,RA_OF_ASC_NODE,ARG_OF_PERICENTER,MEAN_ANOMALY,EPHEMERIS_TYPE,CLASSIFICATION_TYPE,NORAD_CAT_ID,ELEMENT_SET_NO,REV_AT_EPOCH,BSTAR,MEAN_MOTION_DOT,MEAN_MOTION_DDOT
STARLINK-35695,2025-268B,2026-06-15T16:36:48.596832,15.27578197,.00026153,42.9998,153.9745,80.1187,279.9959,0,U,66558,999,3294,.44567527E-3,.12021E-3,0
STARLINK-35419,2025-268C,2026-06-15T16:05:20.582304,15.27599879,.00011772,43.0027,153.8069,255.2450,104.8271,0,U,66559,999,3294,.43676253E-3,.11783E-3,0
STARLINK-35411,2025-268D,2026-06-15T16:01:36.998112,15.27596367,.00003073,43.0041,153.7866,312.9085,47.1741,0,U,66560,999,3294,.51063043E-3,.13823E-3,0
STARLINK-35305,2025-268E,2026-06-15T15:50:31.121088,15.27584554,.00017224,42.9973,153.7259,274.7231,85.3424,0,U,66561,999,3294,.57995153E-3,.15733E-3,0
STARLINK-35579,2025-268F,2026-06-15T15:56:04.905024,15.27584660,.0000421,42.9983,153.7572,80.9548,279.1352,0,U,66562,999,3294,.5360423E-3,.1452E-3,0
STARLINK-35437,2025-268G,2026-06-15T15:44:57.958368,15.27589875,.00020709,42.9899,153.6966,271.3873,88.6742,0,U,66563,999,3294,.7138649E-3,.1944E-3,0
STARLINK-35358,2025-268H,2026-06-15T15:39:24.610752,15.27591453,.00022423,42.9921,153.6659,275.2498,84.8098,0,U,66564,999,3294,.41501386E-3,.1118E-3,0
STARLINK-35893,2025-268J,2026-06-15T15:33:52.030368,15.27588252,.0001758,42.9988,153.6365,272.0288,88.0362,0,U,66565,999,3294,.8109921E-3,.22127E-3,0
STARLINK-35871,2025-268K,2026-06-14T15:57:48.660192,15.27592453,.00021798,43.0009,159.1551,273.9217,86.1385,0,U,66566,999,3279,.82732532E-3,.22583E-3,0
STARLINK-35825,2025-268L,2026-06-14T06:27:18.944064,15.27629418,.0002275,42.9985,161.3382,273.6204,86.4387,0,U,66567,999,3273,.67328E-3,.1834E-3,0
STARLINK-35803,2025-268M,2026-06-16T05:24:37.405152,15.27596416,.0001355,43.0019,150.2265,270.6963,89.3734,0,U,66568,999,3303,.4783E-3,.12929E-3,0
STARLINK-35835,2025-268N,2026-06-16T05:20:55.255200,15.27596444,.0001818,43.0042,150.2062,272.9678,87.0966,0,U,66569,999,3303,.46032E-3,.12432E-3,0
STARLINK-35834,2025-268P,2026-06-16T05:17:25.867392,15.27599453,.0000851,43.0022,151.0575,260.2229,99.8526,0,U,66570,999,3302,.47671E-3,.12886E-3,0
STARLINK-35836,2025-268Q,2026-06-15T16:38:38.115744,15.27607929,.00009962,42.9988,153.9829,285.4625,74.6117,0,U,66571,999,3294,.5116875E-3,.13857E-3,0
STARLINK-35870,2025-268R,2026-06-15T16:29:22.597440,15.27587149,.0002657,43.0045,153.9360,271.8169,88.2379,0,U,66572,999,3294,.50657422E-3,.13707E-3,0
STARLINK-35650,2025-268S,2026-06-15T16:23:49.618752,15.27594091,.00018288,43.0025,153.9073,277.2089,82.8555,0,U,66573,999,3294,.73306012E-3,.19974E-3,0
STARLINK-35812,2025-268T,2026-06-15T16:18:16.696224,15.27582913,.00013769,43.0009,153.8758,277.2455,82.8240,0,U,66574,999,3294,.40109314E-3,.10792E-3,0
STARLINK-35810,2025-268U,2026-06-15T16:12:43.255296,15.27599504,.00021473,43.0021,153.8471,272.4842,87.5764,0,U,66575,999,3294,.60780942E-3,.16511E-3,0
STARLINK-35814,2025-268V,2026-06-15T16:07:09.910272,15.27594054,.00026424,43.0033,153.8154,265.3452,94.7098,0,U,66576,999,3294,.72147751E-3,.19654E-3,0
STARLINK-35815,2025-268W,2026-06-15T15:57:55.649952,15.27584681,.00004704,43.0067,153.7633,260.3870,99.6928,0,U,66577,999,3294,.56650942E-3,.15362E-3,0
STARLINK-35743,2025-268X,2026-06-15T15:52:22.358496,15.27585205,.00006973,43.0040,153.7349,250.2474,109.8302,0,U,66578,999,3294,.52547601E-3,.14228E-3,0
STARLINK-35868,2025-268Y,2026-06-15T15:46:49.600128,15.27580251,.00003908,43.0103,153.7055,215.7102,144.3724,0,U,66579,999,3294,.45658598E-3,.12323E-3,0
STARLINK-35872,2025-268Z,2026-06-15T15:41:15.733248,15.27592411,.00020203,42.9973,153.6725,274.7278,85.3343,0,U,66580,999,3294,.7383349E-3,.20119E-3,0
STARLINK-35744,2025-268AA,2026-06-15T15:35:43.558080,15.27580172,.00005814,43.0057,153.6464,221.9497,138.1310,0,U,66581,999,3294,.46924417E-3,.12673E-3,0
STARLINK-35746,2025-268AB,2026-06-14T06:29:10.607424,15.27605080,.0000793,43.0042,161.3507,133.0093,227.0825,0,U,66582,999,3273,.62892E-3,.17098E-3,0
STARLINK-35941,2025-268AC,2026-06-16T05:28:19.259616,15.27597807,.0001067,42.9982,150.2385,259.8175,100.2557,0,U,66583,999,3303,.4778E-3,.12916E-3,0
STARLINK-35939,2025-268AD,2026-06-16T05:22:45.770304,15.27605135,.0000876,42.9988,150.2090,262.8254,97.2498,0,U,66584,999,3303,.52446E-3,.14209E-3,0
STARLINK-35963,2025-268AE,2026-06-15T16:34:55.588224,15.27583670,.00021035,43.0022,153.9594,271.2312,88.8299,0,U,66585,999,3294,.47686834E-3,.12885E-3,0
STARLINK-36076,2025-270A,2026-06-15T20:44:32.698176,15.27564758,.0001359,43.0014,221.4647,258.0645,102.0055,0,U,66588,999,3272,.28872E-3,.7688E-4,0
STARLINK-35447,2025-270B,2026-06-15T10:15:03.288096,15.27584017,.00035271,43.0031,224.2126,278.5692,81.4760,0,U,66589,999,3276,.58266202E-3,.15809E-3,0
