STARLINK-35695          
1 66558U 25268B   26166.69222913  .00012021  00000+0  44568-3 0  9993
2 66558  42.9998 153.9745 0002615  80.1187 279.9959 15.27578197 32946
STARLINK-35419          
1 66559U 25268C   26166.67037711  .00011783  00000+0  43676-3 0  9995
2 66559  43.0027 153.8069 0001177 255.2450 104.8271 15.27599879 32943
STARLINK-35411          
1 66560U 25268D   26166.66778933  .00013823  00000+0  51063-3 0  9990
2 66560  43.0041 153.7866 0000307 312.9085  47.1741 15.27596367 32944
STARLINK-35305          
1 66561U 25268E   26166.66008242  .00015733  00000+0  57995-3 0  9992
2 66561  42.9973 153.7259 0001722 274.7231  85.3424 15.27584554 32940
STARLINK-35579          
1 66562U 25268F   26166.66394566  .00014520  00000+0  53604-3 0  9996
2 66562  42.9983 153.7572 0000421  80.9548 279.1352 15.27584660 32944
STARLINK-35437          
1 66563U 25268G   26166.65622637  .00019440  00000+0  71386-3 0  9992
2 66563  42.9899 153.6966 0002070 271.3873  88.6742 15.27589875 32945
STARLINK-35358          
1 66564U 25268H   26166.65236818  .00011180  00000+0  41501-3 0  9994
2 66564  42.9921 153.6659 0002242 275.2498  84.8098 15.27591453 32945
STARLINK-35893          
1 66565U 25268J   26166.64851887  .00022127  00000+0  81099-3 0  9992
2 66565  42.9988 153.6365 0001758 272.0288  88.0362 15.27588252 32949
STARLINK-35871          
1 66566U 25268K   26165.66514653  .00022583  00000+0  82733-3 0  9993
2 66566  43.0009 159.1551 0002179 273.9217  86.1385 15.27592453 32799
STARLINK-35825          
1 66567U 25268L   26165.26896926  .00018340  00000+0  67328-3 0  9995
2 66567  42.9985 161.3382 0002275 273.6204  86.4387 15.27629418 32739
STARLINK-35803          
1 66568U 25268M   26167.22543293  .00012929  00000+0  47830-3 0  9993
2 66568  43.0019 150.2265 0001355 270.6963  89.3734 15.27596416 33037
STARLINK-35835          
1 66569U 25268N   26167.22286175  .00012432  00000+0  46032-3 0  9999
2 66569  43.0042 150.2062 0001818 272.9678  87.0966 15.27596444 33034
STARLINK-35834          
1 66570U 25268P   26167.22043828  .00012886  00000+0  47671-3 0  9990
2 66570  43.0022 151.0575 0000851 260.2229  99.8526 15.27599453 33025
STARLINK-35836          
1 66571U 25268Q   26166.69349671  .00013857  00000+0  51169-3 0  9992
2 66571  42.9988 153.9829 0000996 285.4625  74.6117 15.27607929 32942
STARLINK-35870          
1 66572U 25268R   26166.68706710  .00013707  00000+0  50657-3 0  9998
2 66572  43.0045 153.9360 0002657 271.8169  88.2379 15.27587149 32949
STARLINK-35650          
1 66573U 25268S   26166.68321318  .00019974  00000+0  73306-3 0  9994
2 66573  43.0025 153.9073 0001828 277.2089  82.8555 15.27594091 32949
STARLINK-35812          
1 66574U 25268T   26166.67935991  .00010792  00000+0  40109-3 0  9996
2 66574  43.0009 153.8758 0001376 277.2455  82.8240 15.27582913 32947
STARLINK-35810          
1 66575U 25268U   26166.67550064  .00016511  00000+0  60781-3 0  9994
2 66575  43.0021 153.8471 0002147 272.4842  87.5764 15.27599504 32945
STARLINK-35814          
1 66576U 25268V   26166.67164248  .00019654  00000+0  72148-3 0  9991
2 66576  43.0033 153.8154 0002642 265.3452  94.7098 15.27594054 32940
STARLINK-35815          
1 66577U 25268W   26166.66522743  .00015362  00000+0  56651-3 0  9992
2 66577  43.0067 153.7633 0000470 260.3870  99.6928 15.27584681 32946
STARLINK-35743          
1 66578U 25268X   26166.66136989  .00014228  00000+0  52548-3 0  9997
2 66578  43.0040 153.7349 0000697 250.2474 109.8302 15.27585205 32944
STARLINK-35868          
1 66579U 25268Y   26166.65751852  .00012323  00000+0  45659-3 0  9998
2 66579  43.0103 153.7055 0000390 215.7102 144.3724 15.27580251 32941
STARLINK-35872          
1 66580U 25268Z   26166.65365432  .00020119  00000+0  73833-3 0  9992
2 66580  42.9973 153.6725 0002020 274.7278  85.3343 15.27592411 32942
STARLINK-35744          
1 66581U 25268AA  26166.64980970  .00012673  00000+0  46924-3 0  9999
2 66581  43.0057 153.6464 0000581 221.9497 138.1310 15.27580172 32947
STARLINK-35746          
1 66582U 25268AB  26165.27026166  .00017098  00000+0  62892-3 0  9994
2 66582  43.0042 161.3507 0000793 133.0093 227.0825 15.27605080 32738
STARLINK-35941          
1 66583U 25268AC  26167.22800069  .00012916  00000+0  47780-3 0  9997
2 66583  42.9982 150.2385 0001067 259.8175 100.2557 15.27597807 33039
STARLINK-35939          
1 66584U 25268AD  26167.22414086  .00014209  00000+0  52446-3 0  9990
2 66584  42.9988 150.2090 0000876 262.8254  97.2498 15.27605135 33031
STARLINK-35963          
1 66585U 25268AE  26166.69092116  .00012885  00000+0  47687-3 0  9996
2 66585  43.0022 153.9594 0002103 271.2312  88.8299 15.27583670 32949
STARLINK-36076          
1 66588U 25270A   26166.86426734  .00007688  00000+0  28872-3 0  9998
2 66588  43.0014 221.4647 0001359 258.0645 102.0055 15.27564758 32728
STARLINK-35447          
1 66589U 25270B   26166.42712139  .00015809  00000+0  58266-3 0  9992
2 66589  43.0031 224.2126 0003527 278.5692  81.4760 15.27584017 32766
